[{"OBJECT_NAME":"STARLINK-1506","OBJECT_ID":"2020-038T","EPOCH":"2026-03-09T15:50:48.887520","MEAN_MOTION":15.26134655,"ECCENTRICITY":0.00025141,"INCLINATION":53.0733,"RA_OF_ASC_NODE":202.5028,"ARG_OF_PERICENTER":227.7836,"MEAN_ANOMALY":132.2949,"EPHEMERIS_TYPE":0,"CLASSIFICATION_TYPE":"U","NORAD_CAT_ID":45747,"ELEMENT_SET_NO":999,"REV_AT_EPOCH":31668,"BSTAR":0.0009799682,"MEAN_MOTION_DOT":0.0002538,"MEAN_MOTION_DDOT":0},{"OBJECT_NAME":"STARLINK-36524","OBJECT_ID":"2026-008H","EPOCH":"2026-03-09T20:41:41.715168","MEAN_MOTION":15.27595859,"ECCENTRICITY":0.00024492,"INCLINATION":43.0011,"RA_OF_ASC_NODE":204.6815,"ARG_OF_PERICENTER":288.5037,"MEAN_ANOMALY":71.5549,"EPHEMERIS_TYPE":0,"CLASSIFICATION_TYPE":"U","NORAD_CAT_ID":67452,"ELEMENT_SET_NO":999,"REV_AT_EPOCH":959,"BSTAR":0.0015351124,"MEAN_MOTION_DOT":0.00042245,"MEAN_MOTION_DDOT":0}]
